NUSAT-48 (HENRIETTA LE*)
1 60498U 24149AG  26068.80506098  .00012988  00000+0  45212-3 0  9999
2 60498  97.3923 150.8264 0002754 263.3026  96.7901 15.29812597 86946
STARLINK-34403          
1 64443U 25130F   26068.47634522  .00022848  00000+0  78102-3 0  9991
2 64443  53.1588  89.2962 0000846  88.1397 271.9700 15.30206311 40678
